id;name;description;category;address;picture;capacity;longitude;latitude
1;Gold Gym;Gold Gym Academy was founded in 2002 as a pioneer professional Fitness Educational Academy with a solid foundation for health and fitness education, knowledge, techniques and philosophy.;Gym;Körtestrasse 22, 10967 Berlin;https://images.unsplash.com/photo-1571902943202-507ec2618e8f?ixlib=rb-1.2.1&ixid=MnwxMjA3fDB8MHxwaG90by1wYWdlfHx8fGVufDB8fHx8&auto=format&fit=crop&w=1375&q=80;200;13.409390;52.490430
2;Silver Gym;Silver Gym is a No Judgment Gym that believes in making serious exercise fun by fusing fitness and entertainment. Join Crunch for all your fitness needs!;Gym;Puderstrasse 22, 12435 Berlin;https://images.unsplash.com/photo-1593079831268-3381b0db4a77?ixlib=rb-1.2.1&ixid=MnwxMjA3fDB8MHxwaG90by1wYWdlfHx8fGVufDB8fHx8&auto=format&fit=crop&w=1469&q=80;140;13.464720;52.485880
3;Navy Gym;Navy Gym is an experience for the pure love for fitness, music, art and design on 3500 m². We designed it down to the smallest detail for you. Get your body in shape: functional, cardio, live classes, group workouts or swimming. Yes, there is even a wellness area with saunas, jacuzzis and a pool.;Gym;Kottbusser Damm 22, 10967 Berlin;https://images.unsplash.com/photo-1540497077202-7c8a3999166f?ixlib=rb-1.2.1&ixid=MnwxMjA3fDB8MHxwaG90by1wYWdlfHx8fGVufDB8fHx8&auto=format&fit=crop&w=1470&q=80;80;;
4;Maroon Gym;The most flexible sports and wellness gym in Berlin. Train when and where you want, indoor, outdoor and online. Choose from 50+ sport types and wellness offers. Discounts valid only for new customers. Cannot be combined with other discounts.;Gym;Schinkestrasse 12, 12047 Berlin;https://images.unsplash.com/photo-1558611848-73f7eb4001a1?ixlib=rb-1.2.1&ixid=MnwxMjA3fDB8MHxwaG90by1wYWdlfHx8fGVufDB8fHx8&auto=format&fit=crop&w=1471&q=80;159;;
5;Magenta Gym;Magenta in the heart of Berlin! Whether cardio, functional training or swimming in the pool - our varied and design-oriented training areas allow you to have your own personal feel-good space. High-quality equipment, a spacious outdoor area with equipment and support from qualified trainers offer you optimal opportunities for an efficient and effective workout.;Gym;Friedelstrasse 40, 12047 Berlin;https://images.unsplash.com/photo-1561214078-f3247647fc5e?ixlib=rb-1.2.1&ixid=MnwxMjA3fDB8MHxwaG90by1wYWdlfHx8fGVufDB8fHx8&auto=format&fit=crop&w=1470&q=80;233;;
6;Grey Gym;Grey Gym is all about movement and targeted fitness training are seen as prerequisites for health, performance and well-being. In addition to all common devices such as cardio bikes and dumbbells and barbells, 24 courses complete the offer. For the youngest athletes among us there are children's courses in sports such as judo, karate and dance.;Gym;Kleine Innstraße 10, 12045 Berlin;https://images.unsplash.com/photo-1546483875-ad9014c88eba?ixlib=rb-1.2.1&ixid=MnwxMjA3fDB8MHxwaG90by1wYWdlfHx8fGVufDB8fHx8&auto=format&fit=crop&w=1382&q=80;130;;
7;Violet Gym;Violet Gym offers a personalised fitness program that is developed that works on the principle of super-compensation. The personal advisors work out the training and nutrition plans according to the rule of thumb of 40 percent training, 40 percent nutrition and 20 percent relaxation.;Gym;Ossastrasse 8, 12045 Berlin;https://images.unsplash.com/photo-1540496905036-5937c10647cc?ixlib=rb-1.2.1&ixid=MnwxMjA3fDB8MHxwaG90by1wYWdlfHx8fGVufDB8fHx8&auto=format&fit=crop&w=1470&q=80;157;;
8;Purple Gym;The training area is 1,200 square meters and leaves nothing to be desired with all possible fitness equipment. Large changing rooms with modern showers ensure a feel-good factor before and after training. Cardio and equipment training costs EUR 6.25 per week for annual members. Additional fees have to be paid for the use of the sauna and solarium, but these are reasonable.;Gym;Alt-Moabit 83a, 10555 Berlin;https://images.unsplash.com/photo-1570829460005-c840387bb1ca?ixlib=rb-1.2.1&ixid=MnwxMjA3fDB8MHxwaG90by1wYWdlfHx8fGVufDB8fHx8&auto=format&fit=crop&w=1932&q=80;108;;
9;Grape Gym;The studio is equipped with equipment from the internationally leading company Technogym, which impresses with its modern design, good biomechanics and innovative usability. Various courses are offered on weekdays. The program ranges from abs, legs, bottom and back to yoga and Pilates. At Grape, older women receive individual support and a training plan specially tailored to their needs.;Gym;Wiesenstrasse 64, 13357 Berlin;https://images.unsplash.com/photo-1542766788-a2f588f447ee?ixlib=rb-1.2.1&ixid=MnwxMjA3fDB8MHxwaG90by1wYWdlfHx8fGVufDB8fHx8&auto=format&fit=crop&w=1476&q=80;55;;
10;Amethyst Gym;Amethyst Gym offers programs in to cover the areas of skin tightening, body shaping and weight loss, there are special programs based on the latest sport-physiological and nutritional knowledge. The speed training is then carried out twice a week for 30 minutes. As a special feature, electrical muscle stimulators are used in the exercises, which accelerate the training effect.;Gym;Friedrichstrasse 113a, 10117 Berlin;https://images.unsplash.com/photo-1554284126-aa88f22d8b74?ixlib=rb-1.2.1&ixid=MnwxMjA3fDB8MHxwaG90by1wYWdlfHx8fGVufDB8fHx8&auto=format&fit=crop&w=1894&q=80;95;;
11;Yucca Boulder;Bouldering may be the most effective full-body workout. This rope-free form of indoor climbing trains the core, arms, legs, hips...basically the entire body as it ascends the wall and defies gravity. Because every step on a bouldering wall is different, each movement engages a different muscle group, all the while improving your coordination by forcing you to maintain your balance. But there’s more: bouldering increases your heart rate, improving cardiovascular health and, because of all the concentration and mental calculation involved, new research suggests that it may even make you smarter!;Bouldering;Jonasstrasse 15, 12053 Berlin;https://images.unsplash.com/photo-1660756122191-25a435703edb?crop=entropy&cs=tinysrgb&fit=max&fm=jpg&ixid=MnwxfDB8MXxyYW5kb218MHx8Ym91bGRlcmluZy1mYWNpdGlseXx8fHx8fDE2NjIxMTIyMjg&ixlib=rb-1.2.1&q=80&utm_campaign=api-credit&utm_medium=referral&utm_source=unsplash_source&w=1080;35;;
12;Palm Boulder;In Palm Boulder we offer you the experience of real bouldering as it ascends the wall and resists gravity, this rope-free style of indoor climbing exercises the core, arms, legs, hips...basically the entire body. Because each step on a bouldering wall is unique, each action utilizes a new muscle group, boosting your coordination by requiring you to maintain your balance. But there's more: bouldering raises your heart rate, which improves cardiovascular health, and new study shows that since it requires so much focus and mental calculation, it may even make you smarter!;Bouldering;Glasower Str. 44, 12051 Berlin;https://images.unsplash.com/photo-1660755908217-02fca5dc3d78?crop=entropy&cs=tinysrgb&fit=max&fm=jpg&ixid=MnwxfDB8MXxyYW5kb218MHx8Ym91bGRlcmluZy1mYWNpdGlseXx8fHx8fDE2NjIxMTIzNDY&ixlib=rb-1.2.1&q=80&utm_campaign=api-credit&utm_medium=referral&utm_source=unsplash_source&w=1080;46;;
13;Leaf Boulder;Leaf Boulder is one of these facilities that offers only just fun time, in Leaf Boulder, Bouldering is climbing without ropes up to a height from which you can still jump off. For safety, you land on thick mats. This isn’t only reassuring for the climbers, but also for mums and dads watching their clambering offspring.;Bouldering;Oranienstraße 190, 10999 Berlin;https://images.unsplash.com/photo-1660756086258-0d8f193328f6?crop=entropy&cs=tinysrgb&fit=max&fm=jpg&ixid=MnwxfDB8MXxyYW5kb218MHx8Ym91bGRlcmluZy1mYWNpdGlseXx8fHx8fDE2NjIxMTIzNzE&ixlib=rb-1.2.1&q=80&utm_campaign=api-credit&utm_medium=referral&utm_source=unsplash_source&w=1080;26;;
14;Monstera Boulder;In Monstera Boulder facility, Bouldering Experience are like these cliffs at the park have more bouldering than climbing. Students also can get to know other climbers in an informal environment. There are free self-guided hikes and bouldering activities.;Bouldering;Am Flutgraben, 12435 Berlin;https://images.unsplash.com/photo-1660756238206-74d630bc00ad?crop=entropy&cs=tinysrgb&fit=max&fm=jpg&ixid=MnwxfDB8MXxyYW5kb218MHx8Ym91bGRlcmluZy1mYWNpdGlseXx8fHx8fDE2NjIxMTIzOTU&ixlib=rb-1.2.1&q=80&utm_campaign=api-credit&utm_medium=referral&utm_source=unsplash_source&w=1080;30;;
15;Dracaena Boulder;Dracaena Boulder is one of these facilities that solely provides a great time. Bouldering in Dracaena Boulder involves climbing without ropes up to a height from which you may still leap off. You land on thick mats for safety. This is reassuring not only for the climbers, but also for the parents who are watching their children clamber.;Bouldering;Ohlauer Str. 38, 10999 Berlin;https://images.unsplash.com/photo-1660753845626-1069076d0ce8?crop=entropy&cs=tinysrgb&fit=max&fm=jpg&ixid=MnwxfDB8MXxyYW5kb218MHx8Ym91bGRlcmluZy1mYWNpdGlseXx8fHx8fDE2NjIxMTI0MTg&ixlib=rb-1.2.1&q=80&utm_campaign=api-credit&utm_medium=referral&utm_source=unsplash_source&w=1080;65;;
16;Aloe Vera Boulder;This rope-free method of indoor climbing strengthens the core, arms, legs, hips...basically the complete body. Because each step on a bouldering wall is unique, each motion requires you to maintain your balance, which improves your coordination. But there's more: bouldering elevates your heart rate, which improves cardiovascular health, and a new study suggests that it may even make you smarter since it involves so much attention and mental calculation!;Bouldering;Prenzlauer Allee 248-251, 10405 Berlin;https://images.unsplash.com/photo-1660755534223-cd6366896c17?crop=entropy&cs=tinysrgb&fit=max&fm=jpg&ixid=MnwxfDB8MXxyYW5kb218MHx8Ym91bGRlcmluZy1mYWNpdGlseXx8fHx8fDE2NjIxMTI2MDA&ixlib=rb-1.2.1&q=80&utm_campaign=api-credit&utm_medium=referral&utm_source=unsplash_source&w=1080;62;;
17;Cactus Boulder;Bouldering Experiences at Monstera Boulder are similar to these cliffs at the park, with more bouldering than climbing. Students can also meet other climbers in a casual setting. There are self-guided treks and bouldering activities available for free.;Bouldering;Rudi-Dutschke-Straße 26, 10969 Berlin;https://images.unsplash.com/photo-1660754000516-3180d9d4f833?crop=entropy&cs=tinysrgb&fit=max&fm=jpg&ixid=MnwxfDB8MXxyYW5kb218MHx8Ym91bGRlcmluZy1mYWNpdGlseXx8fHx8fDE2NjIxMTI2MTE&ixlib=rb-1.2.1&q=80&utm_campaign=api-credit&utm_medium=referral&utm_source=unsplash_source&w=1080;34;;
18;Rubber Boulder;Bouldering has the potential to be the most effective full-body workout. As it ascends the wall and resists gravity, this rope-free style of indoor climbing exercises the core, arms, legs, hips...basically the entire body. Because each step on a bouldering wall is unique, each action utilizes a new muscle group, boosting your coordination by requiring you to maintain your balance. But there's more: bouldering raises your heart rate, which improves cardiovascular health, and new study shows that since it requires so much focus and mental calculation, it may even make you smarter!;Bouldering;Karl-Marx-Straße 131, 12043 Berlin;https://images.unsplash.com/photo-1660755043286-ba4ff54c4867?crop=entropy&cs=tinysrgb&fit=max&fm=jpg&ixid=MnwxfDB8MXxyYW5kb218MHx8Ym91bGRlcmluZy1mYWNpdGlseXx8fHx8fDE2NjIxMTI2Mjk&ixlib=rb-1.2.1&q=80&utm_campaign=api-credit&utm_medium=referral&utm_source=unsplash_source&w=1080;50;;
19;Ficus Boulder;One of these establishments that only offers fun is Ficus Boulder. Climbing without ropes up to a height from which you can still leap off is known as bouldering in Ficus Boulder. For safety, you land on substantial matting. This is comforting for everyone, including the climbers and the parents who are watching their kids clamber.;Bouldering;Hermannstraße 20, 12049 Berlin;https://images.unsplash.com/photo-1660755524604-b5ac6a589955?crop=entropy&cs=tinysrgb&fit=max&fm=jpg&ixid=MnwxfDB8MXxyYW5kb218MHx8Ym91bGRlcmluZy1mYWNpdGlseXx8fHx8fDE2NjIxMTI2NDM&ixlib=rb-1.2.1&q=80&utm_campaign=api-credit&utm_medium=referral&utm_source=unsplash_source&w=1080;45;;
20;Pothos Boulder;In Pothos Boulder we offer you the experience of real bouldering as it ascends the wall and resists gravity, this rope-free style of indoor climbing exercises the core, arms, legs, hips...basically the entire body. Because each step on a bouldering wall is unique, each action utilizes a new muscle group, boosting your coordination by requiring you to maintain your balance. But there's more: bouldering raises your heart rate, which improves cardiovascular health.;Bouldering;Karl-Marx-Allee 33, 10178 Berlin;https://images.unsplash.com/photo-1660756170174-3cc271389b3d?crop=entropy&cs=tinysrgb&fit=max&fm=jpg&ixid=MnwxfDB8MXxyYW5kb218MHx8Ym91bGRlcmluZy1mYWNpdGlseXx8fHx8fDE2NjIxMTI2NjE&ixlib=rb-1.2.1&q=80&utm_campaign=api-credit&utm_medium=referral&utm_source=unsplash_source&w=1080;38;;
21;Oak Climbing;"The climbing hall in Oak Climbing offers with its 3000 m 2 space for lots of climbing fun at a safe jumping height. Its organic wall structure enables tricky climbing in vertical to heavily overhanging walls and the free-standing block in the centre of the hall, the ""Dicke Berta"", ensures the summit experience. Whether with friends or alone, whether athletic or filigree climbing, movement problems of all levels of difficulty can be solved here.";Climbing;Kantstraße 10, 10623 Berlin;https://images.unsplash.com/photo-1600059595051-ad108f7711a5?crop=entropy&cs=tinysrgb&fit=max&fm=jpg&ixid=MnwxfDB8MXxyYW5kb218MHx8Y2xpbWJpbmctZmFjaXRpbHl8fHx8fHwxNjYyMTEzMDgz&ixlib=rb-1.2.1&q=80&utm_campaign=api-credit&utm_medium=referral&utm_source=unsplash_source&w=1080;15;;
22;Pine Climbing;With its 1500 m2 of space, Pine Climbing's climbing wall provides plenty of climbing enjoyment at a secure leaping height. Its naturally occurring wall structure makes it possible to climb up difficult, vertical to severely overhanging walls, and the free-standing block in the middle of the room guarantees a summit experience. Movement issues of all levels of difficulty can be resolved here, whether with friends or family, whether through athletics or filigree climbing.;Climbing;Hardenbergstraße 22-24, 10623 Berlin;https://images.unsplash.com/photo-1610769185248-fa41300a2118?crop=entropy&cs=tinysrgb&fit=max&fm=jpg&ixid=MnwxfDB8MXxyYW5kb218MHx8Y2xpbWJpbmctZmFjaXRpbHl8fHx8fHwxNjYyMTEyOTky&ixlib=rb-1.2.1&q=80&utm_campaign=api-credit&utm_medium=referral&utm_source=unsplash_source&w=1080;20;;
23;Nutmeg Climbing;"A special training area enables ambitious climbers to do targeted system training. The friendly atmosphere invites you to linger. While the children find their way into climbing at the ""Dragon Rock"", you can spend your time relaxing with a coffee and a healthy treat. With more than 1000 m2 and up to 15 meters high.";Climbing;Klingelhöferstraße 7, 10785 Berlin;https://images.unsplash.com/photo-1649062692389-ad1f9ed66271?crop=entropy&cs=tinysrgb&fit=max&fm=jpg&ixid=MnwxfDB8MXxyYW5kb218MHx8Y2xpbWJpbmctZmFjaXRpbHl8fHx8fHwxNjYyMTEzMDI5&ixlib=rb-1.2.1&q=80&utm_campaign=api-credit&utm_medium=referral&utm_source=unsplash_source&w=1080;14;;
24;Teak Climbing;Aspiring climbers have access to a 750 square meter training facility that is 15 meters high. You are urged to stay awhile by the welcoming ambiance. You can unwind with a cup of coffee and a nutritious treat as the kids learn how to climb at the kid rock.;Climbing;Rosenthaler Str. 44, 10178 Berlin;https://images.unsplash.com/photo-1605868239662-10663b4460fe?crop=entropy&cs=tinysrgb&fit=max&fm=jpg&ixid=MnwxfDB8MXxyYW5kb218MHx8Y2xpbWJpbmd8fHx8fHwxNjYyMTEzMTA3&ixlib=rb-1.2.1&q=80&utm_campaign=api-credit&utm_medium=referral&utm_source=unsplash_source&w=1080;17;;
25;Rosewood Climbing;"The climbing hall in Rosewood hall offers with its 2400 m 2 space for lots of climbing fun at a safe jumping height. Its organic wall structure enables tricky climbing in vertical to heavily overhanging walls and the free-standing block in the centre of the hall, the ""Dicke Berta"", ensures the summit experience. Whether with friends or alone, whether athletic or filigree climbing, movement problems of all levels of difficulty can be solved here.";Climbing;Kurfürstendamm 26, 10719 Berlin;https://images.unsplash.com/photo-1507034589631-9433cc6bc453?crop=entropy&cs=tinysrgb&fit=max&fm=jpg&ixid=MnwxfDB8MXxyYW5kb218MHx8Y2xpbWJpbmctZmFjaXRpbHl8fHx8fHwxNjYyMTEzMTI5&ixlib=rb-1.2.1&q=80&utm_campaign=api-credit&utm_medium=referral&utm_source=unsplash_source&w=1080;25;;
26;Banyan Climbing;With its 1700 m2 of space, Banyan Climbing's climbing wall provides plenty of climbing enjoyment at a secure leaping height. Its naturally occurring wall structure makes it possible to climb up difficult, vertical to severely overhanging walls, and the free-standing block in the middle of the room guarantees a summit experience. Movement issues of all levels of difficulty can be resolved here, whether with friends or family, whether through athletics or filigree climbing.;Climbing;Heidestraße 5, 10557 Berlin;https://images.unsplash.com/photo-1503540130927-f730a045483b?crop=entropy&cs=tinysrgb&fit=max&fm=jpg&ixid=MnwxfDB8MXxyYW5kb218MHx8Y2xpbWJpbmctZmFjaXRpbHl8fHx8fHwxNjYyMTEzMTUx&ixlib=rb-1.2.1&q=80&utm_campaign=api-credit&utm_medium=referral&utm_source=unsplash_source&w=1080;23;;
27;Palm Climbing;amateur climbers have access to a 950 square meter training facility that is 15 meters high. You are urged to stay awhile by the welcoming ambiance. You can unwind with a cup of coffee and a nutritious treat as the kids learn how to climb at the kid rock.;Climbing;Alt-Stralau 70, 10245 Berlin;https://images.unsplash.com/photo-1575437119316-9d1a1da69df0?crop=entropy&cs=tinysrgb&fit=max&fm=jpg&ixid=MnwxfDB8MXxyYW5kb218MHx8Y2xpbWJpbmctZmFjaXRpbHl8fHx8fHwxNjYyMTEzMTc2&ixlib=rb-1.2.1&q=80&utm_campaign=api-credit&utm_medium=referral&utm_source=unsplash_source&w=1080;21;;
28;Birch Climbing;"The climbing hall in Rosewood hall offers with its 2400 m 2 space for lots of climbing fun at a safe jumping height. Its organic wall structure enables tricky climbing in vertical to heavily overhanging walls and the free-standing block in the centre of the hall, the ""Dicke Berta"", ensures the summit experience. Visit us and get to the peak!";Climbing;Schnellerstraße 137, 12439 Berlin;https://images.unsplash.com/photo-1516954476776-e9e627f599d9?crop=entropy&cs=tinysrgb&fit=max&fm=jpg&ixid=MnwxfDB8MXxyYW5kb218MHx8Y2xpbWJpbmctZmFjaXRpbHl8fHx8fHwxNjYyMTEzMjE2&ixlib=rb-1.2.1&q=80&utm_campaign=api-credit&utm_medium=referral&utm_source=unsplash_source&w=1080;15;;
29;Elm Climbing;"A unique training area enables ambitious climbers to do targeted system training. The friendly atmosphere invites you to linger. While the children find their way into climbing at the ""Mountain"", you can spend your time relaxing with a coffee and Breakfast/Launch.";Climbing;Alte Schönhauser Str. 42, 10119 Berlin;https://images.unsplash.com/photo-1598338792779-d4a4a9b2091c?crop=entropy&cs=tinysrgb&fit=max&fm=jpg&ixid=MnwxfDB8MXxyYW5kb218MHx8Y2xpbWJpbmctZmFjaXRpbHl8fHx8fHwxNjYyMTEzMjI5&ixlib=rb-1.2.1&q=80&utm_campaign=api-credit&utm_medium=referral&utm_source=unsplash_source&w=1080;18;;
30;Spruce Climbing;For Professional climbers have access to a 1900 square meter training facility that is 20 meters high. You are urged to stay awhile by the welcoming ambiance. You can unwind with a cup of coffee and a nutritious treat as the kids learn how to climb at the kid rock.;Climbing;Fasanenstraße 73, 10719 Berlin;https://images.unsplash.com/photo-1529861820-012514cbd6d5?crop=entropy&cs=tinysrgb&fit=max&fm=jpg&ixid=MnwxfDB8MXxyYW5kb218MHx8Y2xpbWJpbmctZmFjaXRpbHl8fHx8fHwxNjYyMTEzMjQ3&ixlib=rb-1.2.1&q=80&utm_campaign=api-credit&utm_medium=referral&utm_source=unsplash_source&w=1080;19;;
31;Starfish Swimming;if anything is missing in Berlin, it's the sea. The river that runs through the city, the Spree, can only slightly make up for this lack. But kids love splashing around in the water. The wave pool in the Starfish swimming pool gives youngsters an idea of the force of nature before they go on a trip to the coast by the sea or even the ocean.;Swimming;Leipziger Pl. 12-13, 10117 Berlin;https://images.unsplash.com/photo-1633466152316-d26e2ddfd831?crop=entropy&cs=tinysrgb&fit=max&fm=jpg&ixid=MnwxfDB8MXxyYW5kb218MHx8c3dpbW1pbmctZmFjaWxpdHl8fHx8fHwxNjYyMTEzMzI2&ixlib=rb-1.2.1&q=80&utm_campaign=api-credit&utm_medium=referral&utm_source=unsplash_source&w=1080;30;;
32;Turtle Swimming;The fun pool at Turtle offers swimmers a heated 28°C pool of 50 metres. There is a separate pool with a slide for those who want to learn it. Various saunas, showers, rest rooms, and an outdoor area are ideal for relaxation. Every Wednesday, the sauna is for women only.;Swimming;Friedrichstraße 207, 10969 Berlin;https://images.unsplash.com/photo-1556191034-cbb6aa3cb008?crop=entropy&cs=tinysrgb&fit=max&fm=jpg&ixid=MnwxfDB8MXxyYW5kb218MHx8c3dpbW1pbmctcG9vbHx8fHx8fDE2NjIxMTM0MjM&ixlib=rb-1.2.1&q=80&utm_campaign=api-credit&utm_medium=referral&utm_source=unsplash_source&w=1080;23;;
33;Tuna Swimming;Relax in the 36 degree warm water or let yourself be pampered in the wellness area: The LIQUIDROM is a paradise of heat, water and music and is perhaps one of the most unusual locations in the city. The noble materials and the minimalist architecture offer the perfect setting to leave the outside world behind for a few hours.;Swimming;Alexanderpl. 1, 10178 Berlin;https://images.unsplash.com/photo-1557459325-b6733cbeae9c?crop=entropy&cs=tinysrgb&fit=max&fm=jpg&ixid=MnwxfDB8MXxyYW5kb218MHx8c3dpbW1pbmctcG9vbHx8fHx8fDE2NjIxMTMzNzE&ixlib=rb-1.2.1&q=80&utm_campaign=api-credit&utm_medium=referral&utm_source=unsplash_source&w=1080;34;;
34;Penguin Swimming;Berlin’s first indoor surfing centre, opened in 2019, when experienced and wannabe surfers will be able catch a wave in the capital city. Alongside the nine-metre-wide, indoor citiwave surf wave, there’s a lifestyle restaurant, a surf shop, a mixology bar, a motorbike factory, a beer garden and a surfboard workshop.;Swimming;Europaplatz 1 Hauptbahnhof, 10557 Berlin;https://images.unsplash.com/photo-1622966955854-20f11775f409?crop=entropy&cs=tinysrgb&fit=max&fm=jpg&ixid=MnwxfDB8MXxyYW5kb218MHx8c3dpbW1pbmctcG9vbHx8fHx8fDE2NjIxMTM0NjM&ixlib=rb-1.2.1&q=80&utm_campaign=api-credit&utm_medium=referral&utm_source=unsplash_source&w=1080;35;;
35;Whale Swimming;The pool has a 50-metre pool (26°C), a non-swimmer area (28°C) with a slide, a wading pool, and a therapy pool (33°C). There is a special happy hour fee at a reasonable price for early birds and for working out. The offer is valid for 90 minutes between 6:30am to 8:00am or 8:30pm to 10:00pm.;Swimming;Am Ostbahnhof 9, 10243 Berlin;https://images.unsplash.com/photo-1531075020670-1e846da91ead?crop=entropy&cs=tinysrgb&fit=max&fm=jpg&ixid=MnwxfDB8MXxyYW5kb218MHx8c3dpbW1pbmctcG9vbHx8fHx8fDE2NjIxMTM0OTY&ixlib=rb-1.2.1&q=80&utm_campaign=api-credit&utm_medium=referral&utm_source=unsplash_source&w=1080;28;;
36;Shrimp Swimming;Designed for the 2000 Olympics, the Europaportpark often hosts international competitions. Although the International Olympic Committee decided in favour of Sydney at the time, the SSE is still the largest swimming pool in Europe with a water area of 3391 square metres.;Swimming;Hardenbergpl. 11, 10623 Berlin;https://images.unsplash.com/photo-1520391508-2acb23f8f7bd?crop=entropy&cs=tinysrgb&fit=max&fm=jpg&ixid=MnwxfDB8MXxyYW5kb218MHx8c3dpbW1pbmctcG9vbHx8fHx8fDE2NjIxMTM1MTI&ixlib=rb-1.2.1&q=80&utm_campaign=api-credit&utm_medium=referral&utm_source=unsplash_source&w=1080;20;;
37;Seahorse Swimming;The swimming pool as 50-metre lanes, diving boards of various heights, and a wading pool. In the solarium you can get as tanned as you were on your last holiday. The restaurant offers delicious snacks for when you get hungry.;Swimming;Wrangelstraße 35, 10997 Berlin;https://images.unsplash.com/photo-1657803720968-0c6a423913ba?crop=entropy&cs=tinysrgb&fit=max&fm=jpg&ixid=MnwxfDB8MXxyYW5kb218MHx8c3dpbW1pbmctcG9vbC1neW18fHx8fHwxNjYyMTEzNTQ4&ixlib=rb-1.2.1&q=80&utm_campaign=api-credit&utm_medium=referral&utm_source=unsplash_source&w=1080;34;;
38;Shark Swimming;Relax at Shark pool in the 36 degree warm water or let yourself be pampered in the wellness area. A special feature of the pool: Mermaiding. In selected pools, Berlin pools make the dream of many girls come true. Being a mermaid! The workshops are held on certain dates and must be booked in advance.;Swimming;Hermannplatz 2-3, 10967 Berlin;https://images.unsplash.com/photo-1483744724400-dd3bfb1b71ea?crop=entropy&cs=tinysrgb&fit=max&fm=jpg&ixid=MnwxfDB8MXxyYW5kb218MHx8c3dpbW1pbmctcG9vbC1neW18fHx8fHwxNjYyMTEzNTc0&ixlib=rb-1.2.1&q=80&utm_campaign=api-credit&utm_medium=referral&utm_source=unsplash_source&w=1080;45;;
39;Clownfish Swimming;Clownfish has had a stainless steel pool since the 80’s: a 25-metre pool with diving tower and a no swimming area. Swimming lessons and aqua fitness are offered. The wheelchair accessible sauna area is maintained in an exotic Arabic style: dry and wet sauna, Russian/Roman steam bath, massages, sauna garden, solariums and a bistro. In the entrance hall there is a haircutting salon and restaurant.;Swimming;Hanne-Sobek-Platz 1, 13357 Berlin;https://images.unsplash.com/photo-1470376619031-a6791e534bf0?crop=entropy&cs=tinysrgb&fit=max&fm=jpg&ixid=MnwxfDB8MXxyYW5kb218MHx8c3dpbW1pbmctcG9vbC1neW18fHx8fHwxNjYyMTEzNTky&ixlib=rb-1.2.1&q=80&utm_campaign=api-credit&utm_medium=referral&utm_source=unsplash_source&w=1080;18;;
40;Seal Swimming;The pool in the largest community for beginners swimmers and it is ideal for swimming in eight 50 metre lanes. Once you've tired yourself out, you can relax on heated benches and loungers or go to the Bistro for refreshments. Swimming and play equipment can be hired.;Swimming;Karl-Marx-Straße 66, 12043 Berlin;https://images.unsplash.com/photo-1572594505398-97a384b34ec8?crop=entropy&cs=tinysrgb&fit=max&fm=jpg&ixid=MnwxfDB8MXxyYW5kb218MHx8c3dpbW1pbmctcG9vbC1neW18fHx8fHwxNjYyMTEzNjQy&ixlib=rb-1.2.1&q=80&utm_campaign=api-credit&utm_medium=referral&utm_source=unsplash_source&w=1080;20;;
41;Phobos Tennis;At Phobos, the community is the top priority at this club. Everyone from beginners to elite athletes are warmly welcomed here.;Tennis;Werner-Voß-Damm 62, 12101 Berlin;https://images.unsplash.com/photo-1622668460750-be5b8ba1f343?crop=entropy&cs=tinysrgb&fit=max&fm=jpg&ixid=MnwxfDB8MXxyYW5kb218MHx8dGVubmlzfHx8fHx8MTY2MjExMzY4Mw&ixlib=rb-1.2.1&q=80&utm_campaign=api-credit&utm_medium=referral&utm_source=unsplash_source&w=1080;6;;
42;Mimas Tennis;The 11,000 square-foot facility in the quiet district has 13 tennis courts, can be covered five of which with air-supported structures.;Tennis;Greifswalder Str. 80, 10405 Berlin;https://images.unsplash.com/photo-1614036387281-6ec2ad20a05a?crop=entropy&cs=tinysrgb&fit=max&fm=jpg&ixid=MnwxfDB8MXxyYW5kb218MHx8dGVubmlzfHx8fHx8MTY2MjExMzcyMw&ixlib=rb-1.2.1&q=80&utm_campaign=api-credit&utm_medium=referral&utm_source=unsplash_source&w=1080;8;;
43;Hyperion Tennis;The large open air leisure and sports facility in Berlin offers a total of 8 tennis courts with 4 indoor and 4 outdoor courts. There are also squash courts and table tennis tables as well as a bowling alley. Regardless of whether you are a beginner or a professional there is the right type of training facility for everyone here.;Tennis;Wilmersdorfer Str. 46, 10629 Berlin;https://images.unsplash.com/photo-1610494939536-d3ad4972a982?crop=entropy&cs=tinysrgb&fit=max&fm=jpg&ixid=MnwxfDB8MXxyYW5kb218MHx8dGVubmlzfHx8fHx8MTY2MjExMzczMw&ixlib=rb-1.2.1&q=80&utm_campaign=api-credit&utm_medium=referral&utm_source=unsplash_source&w=1080;4;;
44;Peeps Tennis;The tennis facility of the Berlin Peeps offers its members and interested ten clay courts, and has a three-span hall. Although the Mitte can be reached in 15 minutes, you can still enjoy complete tranquillity here at the edge of Berlin. Peeps offers a beach and chill-out area as well as a playground for the little tennis stars.;Tennis;Gontardstraße 11, 10178 Berlin;https://images.unsplash.com/photo-1541744573515-478c959628a0?crop=entropy&cs=tinysrgb&fit=max&fm=jpg&ixid=MnwxfDB8MXxyYW5kb218MHx8dGVubmlzfHx8fHx8MTY2MjExMzc0NQ&ixlib=rb-1.2.1&q=80&utm_campaign=api-credit&utm_medium=referral&utm_source=unsplash_source&w=1080;6;;
45;Titan Tennis;Sport on over 13 000 sq.m, this facility in the North of Berlin offers 5 hall tennis courts with carpet surfaces and rubber granulate dry shake to protect the joints and ensure an optimal bounce. In addition to tennis, on Berlin and Brandenburg’s largest badminton facility you can of course also play badminton, speed badminton and table tennis, or recover from the effort you have just put in by taking a sauna.;Tennis;Potsdamer Str. 114, 10785 Berlin;https://images.unsplash.com/photo-1609264076154-3231eb5655a0?crop=entropy&cs=tinysrgb&fit=max&fm=jpg&ixid=MnwxfDB8MXxyYW5kb218MHx8dGVubmlzfHx8fHx8MTY2MjExMzc1Mw&ixlib=rb-1.2.1&q=80&utm_campaign=api-credit&utm_medium=referral&utm_source=unsplash_source&w=1080;8;;
46;Titania Tennis;Titan is known for it is 10,000 square-foot facility in the quiet district has 15 tennis courts, can be covered five of which with air-supported structures.;Tennis;Georgenstraße 14-18, 10117 Berlin;https://images.unsplash.com/photo-1615731446707-6ad24074bdd5?crop=entropy&cs=tinysrgb&fit=max&fm=jpg&ixid=MnwxfDB8MXxyYW5kb218MHx8dGVubmlzfHx8fHx8MTY2MjExMzc3MQ&ixlib=rb-1.2.1&q=80&utm_campaign=api-credit&utm_medium=referral&utm_source=unsplash_source&w=1080;10;;
47;Triton Tennis;The high end open air leisure and sports facility in Triton offers a total of 10 tennis courts with 4 indoor and 4 outdoor courts. There are also squash courts and table tennis tables as well as a bowling alley. Regardless of whether you are a beginner or a professional there is the right type of training facility for everyone here.;Tennis;Tempelhofer Damm 28/30, 12101 Berlin;https://images.unsplash.com/photo-1591100371369-b7175aad07ea?crop=entropy&cs=tinysrgb&fit=max&fm=jpg&ixid=MnwxfDB8MXxyYW5kb218MHx8dGVubmlzfHx8fHx8MTY2MjExMzc4MA&ixlib=rb-1.2.1&q=80&utm_campaign=api-credit&utm_medium=referral&utm_source=unsplash_source&w=1080;4;;
48;Callisto Tennis;There are a total of 10 tennis courts available at Callisto high-end outdoor recreational and sporting complex, including 4 indoor and 4 outdoor courts. Along with a bowling alley, there are squash courts, table tennis tables, and more. There is the appropriate training facilities available for everyone, whether you are a novice or a professional.;Tennis;General-Pape-Straße 1, 12101 Berlin;https://images.unsplash.com/photo-1595435742656-5272d0b3fa82?crop=entropy&cs=tinysrgb&fit=max&fm=jpg&ixid=MnwxfDB8MXxyYW5kb218MHx8dGVubmlzfHx8fHx8MTY2MjExMzc4Nw&ixlib=rb-1.2.1&q=80&utm_campaign=api-credit&utm_medium=referral&utm_source=unsplash_source&w=1080;2;;
49;Europa Tennis;This facility in the middle of Berlin has 4 hall tennis courts with carpet floors and rubber granulate dry shake to preserve the joints and ensure an ideal bounce. The complex is around 11,000 square meters large. On Berlin and Brandenburg's largest badminton facility, you can play tennis in addition to badminton, speed badminton, and table tennis. You may also use a sauna to relax after a hard workout.;Tennis;Schönhauser Allee 79-80, 10439 Berlin;https://images.unsplash.com/photo-1636988742970-4c7d1e882024?crop=entropy&cs=tinysrgb&fit=max&fm=jpg&ixid=MnwxfDB8MXxyYW5kb218MHx8dGVubmlzfHx8fHx8MTY2MjExMzgwMA&ixlib=rb-1.2.1&q=80&utm_campaign=api-credit&utm_medium=referral&utm_source=unsplash_source&w=1080;6;;
50;Tethys Tennis;Tethys Tennis Club is renowned for its 10,000 square foot facility, which contains 15 tennis courts, five of which can be covered with air-supported structures.;Tennis;Landsberger Allee 119, 10407 Berlin;https://images.unsplash.com/photo-1587280501635-a19de238a81e?crop=entropy&cs=tinysrgb&fit=max&fm=jpg&ixid=MnwxfDB8MXxyYW5kb218MHx8dGVubmlzfHx8fHx8MTY2MjExMzgwNw&ixlib=rb-1.2.1&q=80&utm_campaign=api-credit&utm_medium=referral&utm_source=unsplash_source&w=1080;8;;
51;Java Volleyball;Since 1976 we have been offering volleyball to anyone interested in Berlin. We have volleyball teams for girls and boys from 8 years, women's and men's teams, as well as leisure groups. We play indoor volleyball and beach volleyball on the club's own fields in the Java Sportpark.;Volleyball;Saatwinkler Damm 61-64, 13627 Berlin;https://images.unsplash.com/photo-1606758394720-9c0b5d0dbc6e?crop=entropy&cs=tinysrgb&fit=max&fm=jpg&ixid=MnwxfDB8MXxyYW5kb218MHx8dm9sbGV5YmFsbHx8fHx8fDE2NjIxMTM4NTI&ixlib=rb-1.2.1&q=80&utm_campaign=api-credit&utm_medium=referral&utm_source=unsplash_source&w=1080;3;;
52;Luzon Volleyball;At the beginning of the millennium, we have steadily expanded our mixed volleyball department . In 1994, a new training facility was added in the form of the “Luzon” on the hall on Thursdays , where we were able to set up a youth and an adult basic group .;Volleyball;Buckower Damm 11, 12349 Berlin;https://images.unsplash.com/photo-1579873676155-6e6f5ab538a2?crop=entropy&cs=tinysrgb&fit=max&fm=jpg&ixid=MnwxfDB8MXxyYW5kb218MHx8dm9sbGV5YmFsbHx8fHx8fDE2NjIxMTM4NzM&ixlib=rb-1.2.1&q=80&utm_campaign=api-credit&utm_medium=referral&utm_source=unsplash_source&w=1080;7;;
53;Panay Volleyball;Next to Volkspark Friedrichshain, there are sandy areas where you can set up several beach fields with a mobile net system. If the weather is good, you should be there early to get a seat. Visit us and we would be very happy about your tips for free beach facilities.;Volleyball;Michael-Brückner-Straße 24, 12439 Berlin;https://images.unsplash.com/photo-1552509297-a311e6bbe568?crop=entropy&cs=tinysrgb&fit=max&fm=jpg&ixid=MnwxfDB8MXxyYW5kb218MHx8dm9sbGV5YmFsbHx8fHx8fDE2NjIxMTM5MTI&ixlib=rb-1.2.1&q=80&utm_campaign=api-credit&utm_medium=referral&utm_source=unsplash_source&w=1080;5;;
54;Samar Volleyball;In Samar Hall there are 2 large volleyball groups that always play at the same time and in the same location. These groups are called “Just Play” and “Lust auf nen Vierer”. These groups can sometimes reach up to 60 participants. They offer a great opportunity to get started in the beach volleyball scene in Berlin.;Volleyball;Holzhauser Str. 31-33, 13509 Berlin;https://images.unsplash.com/photo-1562742645-a53a4337a5e1?crop=entropy&cs=tinysrgb&fit=max&fm=jpg&ixid=MnwxfDB8MXxyYW5kb218MHx8dm9sbGV5YmFsbHx8fHx8fDE2NjIxMTM5MzQ&ixlib=rb-1.2.1&q=80&utm_campaign=api-credit&utm_medium=referral&utm_source=unsplash_source&w=1080;6;;
55;Hainan Volleyball;Since 1998 we have been offering volleyball to anyone interested in Berlin. We have volleyball teams for girls and boys from 8 years, women's and men's teams, as well as leisure groups. We play indoor volleyball and beach volleyball on the club's own fields in Hainan.;Volleyball;Augsburger Str. 43, 10789 Berlin;https://images.unsplash.com/photo-1630435879347-dd1895216501?crop=entropy&cs=tinysrgb&fit=max&fm=jpg&ixid=MnwxfDB8MXxyYW5kb218MHx8dm9sbGV5YmFsbHx8fHx8fDE2NjIxMTM5NDI&ixlib=rb-1.2.1&q=80&utm_campaign=api-credit&utm_medium=referral&utm_source=unsplash_source&w=1080;3;;
56;Aruba Volleyball;With Aruba, registration always starts in the week on Tuesday and does not have a specific time. A post is created on the website and everyone who wants to play on Sunday must register on the website as soon as possible. The post usually appears around 4-5 p.m. The first ~ 50 places then get a right to play. You have to be very quick to register, the places are often gone within 2-3 hours.;Volleyball;Steinbockstraße 20, 12057 Berlin;https://images.unsplash.com/photo-1479859546309-cd77fa21c8f6?ixlib=rb-1.2.1&ixid=MnwxMjA3fDB8MHxwaG90by1wYWdlfHx8fGVufDB8fHx8&auto=format&fit=crop&w=1374&q=80;8;;
57;Anquilla Volleyball;Anguilla offers three halls and mostly a relatively large group with a similar level of play (A1-F1) is the JustPlay beach volleyball group. It takes place on a weekly basis. Registration can be done by telephone and is accepted starting from Monday of the respective week.;Volleyball;Mildred-Harnack-Straße 11, 10243 Berlin;https://images.unsplash.com/photo-1549764206-048e4d403417?ixlib=rb-1.2.1&ixid=MnwxMjA3fDB8MHxwaG90by1wYWdlfHx8fGVufDB8fHx8&auto=format&fit=crop&w=1931&q=80;4;;
58;Grenada Volleyball;Are you new to Berlin or just visiting for a short time and looking for strong beach volleyball partners or opponents. You can book through space, with some information e.g. how many DVV points you have or which tournaments you have already played and we will help you. In order to network good players.;Volleyball;Gubener Str. 48, 10243 Berlin;https://images.unsplash.com/photo-1612872087720-bb876e2e67d1?ixlib=rb-1.2.1&ixid=MnwxMjA3fDB8MHxwaG90by1wYWdlfHx8fGVufDB8fHx8&auto=format&fit=crop&w=2807&q=80;5;;
59;Dominica Volleyball;In the volleyball department of Dominica Berlin, we now play leisure volleyball in five groups. The teams are mixed and have different levels. We do not have playgroups with only men or women. In the summer months, we offer our members the opportunity to play volleyball regularly.;Volleyball;Flughafenstraße 46, 12053 Berlin;https://images.unsplash.com/photo-1562552052-c72ceddf93dc?crop=entropy&cs=tinysrgb&fit=max&fm=jpg&ixid=MnwxfDB8MXxyYW5kb218MHx8dm9sbGV5YmFsbHx8fHx8fDE2NjIxMTQwOTc&ixlib=rb-1.2.1&q=80&utm_campaign=api-credit&utm_medium=referral&utm_source=unsplash_source&w=1080;2;;
60;Cayman Volleyball;In Cayman there are 4 large halls, mostly on the weekend there are more than 3 volleyball groups that always play at the same time and in the same location. These groups can sometimes reach up to 60 participants. They offer a great opportunity to get started in the beach volleyball scene in Berlin.;Volleyball;Urbanstraße 137, 10967 Berlin;https://images.unsplash.com/photo-1605913270924-e2b259ecbfee?crop=entropy&cs=tinysrgb&fit=max&fm=jpg&ixid=MnwxfDB8MXxyYW5kb218MHx8dm9sbGV5YmFsbHx8fHx8fDE2NjIxMTQxMjc&ixlib=rb-1.2.1&q=80&utm_campaign=api-credit&utm_medium=referral&utm_source=unsplash_source&w=1080;6;;
61;Lion MMA;Many people train at Lion MMA Berlin, who have previously trained for years in other martial arts (kickboxing, Thai boxing, boxing, jiu-jitsu, judo, fitness kickboxing, K-1, wrestling...) and join us at an advanced level. Here we care mostly about the community and how martial arts can bring people together.;MMA;Donaustraße 107, 12043 Berlin;https://images.unsplash.com/photo-1637974013743-82656f7c3f49?ixlib=rb-1.2.1&ixid=MnwxMjA3fDB8MHxwaG90by1wYWdlfHx8fGVufDB8fHx8&auto=format&fit=crop&w=648&q=80;20;;
62;Lynx MMA;Lynx MMA was founded in 2010 as a training facility that is focused on mixed martial arts training. Over the last 10 years it has developed itself into a hub for all things martial arts. MMA and the disciplines that form a part thereof are offered almost every day of the week. The disciplines include BJJ, Muay Thai, Boxing and Wrestling.;MMA;Strausberger Pl. 2, 10243 Berlin;https://images.unsplash.com/photo-1584863528123-65b675cc9009?ixlib=rb-1.2.1&ixid=MnwxMjA3fDB8MHxwaG90by1wYWdlfHx8fGVufDB8fHx8&auto=format&fit=crop&w=687&q=80;24;;
63;Eagle MMA;Mixed martial arts or MMA for short started in the 80s and 90s when martial artists where trying to prove to each other which martial arts style is the best. Suitable for people with no prior MMA experience. MMA beginner classes focus on base techniques like simple punches, kicks or throws.;MMA;Herrfurthpl. 6, 12049 Berlin;https://images.unsplash.com/photo-1590556409458-6bce3299e4a0?ixlib=rb-1.2.1&ixid=MnwxMjA3fDB8MHxwaG90by1wYWdlfHx8fGVufDB8fHx8&auto=format&fit=crop&w=687&q=80;18;;
64;Cheetah MMA;At Cheetah, we care about each and every trainer we have, our message is to offer suitable training for people with no knowledge about MMA till they reach a confidence stage, The classes include more difficult techniques and chain together basic techniques to effective combinations. The pace is faster and play sparring is sometimes part of this class.;MMA;Hasenheide 20, 10967 Berlin;https://images.unsplash.com/photo-1622599490476-f804e3092019?ixlib=rb-1.2.1&ixid=MnwxMjA3fDB8MHxwaG90by1wYWdlfHx8fGVufDB8fHx8&auto=format&fit=crop&w=687&q=80;16;;
65;Fox MMA;Fox MMA was founded in 2002 as a training facility that is focused on mixed martial arts training. Over the last 20 years it has developed itself into a hub for all things martial arts. MMA and the disciplines that form a part thereof are offered almost every day of the week.;MMA;Andreasstraße 66, 10243 Berlin;https://images.unsplash.com/photo-1584464491033-06628f3a6b7b?ixlib=rb-1.2.1&ixid=MnwxMjA3fDB8MHxwaG90by1wYWdlfHx8fGVufDB8fHx8&auto=format&fit=crop&w=1470&q=80;26;;
66;Tiger MMA;Although, the best MMA athletes from Berlin and the surrounding area belong to the Tiger’s, our offer is primarily aimed at amateur athletes. Thanks to our expertise, every beginner can be sure that the content taught has been proven on the world's largest stages.;MMA;Jägerstraße 70, 10117 Berlin;https://images.unsplash.com/photo-1590556409454-198422ea5d54?ixlib=rb-1.2.1&ixid=MnwxMjA3fDB8MHxwaG90by1wYWdlfHx8fGVufDB8fHx8&auto=format&fit=crop&w=687&q=80;12;;
67;Leopard MMA;In Leopard MMA, we convey a positive experience in dealing with martial arts. The main focus is on giving our clients the tools they need to defend themselves successfully or to survive in the ring. We believe in a balance between functionality and a healthy philosophy when dealing with martial arts.;MMA;Reichenberger Str. 152, 10999 Berlin;https://images.unsplash.com/photo-1642267308218-b68920214028?ixlib=rb-1.2.1&ixid=MnwxMjA3fDB8MHxwaG90by1wYWdlfHx8fGVufDB8fHx8&auto=format&fit=crop&w=687&q=80;14;;
68;Komodo MMA;Many people train at Komodo MMA Berlin, who have previously trained for years in other martial arts (kickboxing, Thai boxing, boxing, jiu-jitsu, judo, fitness kickboxing, K-1, wrestling...) and join us at an advanced level. Here we care mostly about the community and how martial arts can bring people together.;MMA;Pücklerstraße 20, 10997 Berlin;https://images.unsplash.com/photo-1641625226659-d4fa630279e5?ixlib=rb-1.2.1&ixid=MnwxMjA3fDB8MHxwaG90by1wYWdlfHx8fGVufDB8fHx8&auto=format&fit=crop&w=894&q=80;10;;
69;Vulture MMA;Mixed martial arts started to spread more in the 90s when martial artists where trying to prove to each other which martial arts style is the best. Suitable for people with no prior MMA experience. MMA beginner to classes focus on base techniques like simple punches, kicks or throws. Also above amateur level that want to exceed to professional stage.;MMA;Skalitzer Str. 34, 10997 Berlin;https://images.unsplash.com/photo-1615117972428-28de67cda58e?ixlib=rb-1.2.1&ixid=MnwxMjA3fDB8MHxwaG90by1wYWdlfHx8fGVufDB8fHx8&auto=format&fit=crop&w=2940&q=80;24;;
70;Panther MMA;We present a satisfying martial arts encounter in Panther MMA. Giving our clients the skills they need to effectively defend themselves or endure in the ring is our major goal. When it comes to martial arts, we think there should be a balance between practicality and a sound philosophical foundation.;MMA;Torstraße 1, 10119 Berlin;https://images.unsplash.com/photo-1616652836576-c4115253b2d7?ixlib=rb-1.2.1&ixid=MnwxMjA3fDB8MHxwaG90by1wYWdlfHx8fGVufDB8fHx8&auto=format&fit=crop&w=687&q=80;28;;
71;Terra Badminton;The tennis facility of the Terra offers its members and interested ten clay courts, and has a three-span hall. Although the Mitte can be reached in 15 minutes, you can still enjoy complete tranquillity here at the edge of Berlin. Peeps offers a beach and chill-out area as well as a playground for the little Badminton stars.;Badminton;Nostitzstraße 49, 10961 Berlin;https://images.unsplash.com/photo-1626224583764-f87db24ac4ea?ixlib=rb-1.2.1&ixid=MnwxMjA3fDB8MHxwaG90by1wYWdlfHx8fGVufDB8fHx8&auto=format&fit=crop&w=1470&q=80;6;;
72;Pace Badminton;There are a total of 10 Badminton courts available at Pace high-end outdoor recreational and sporting complex, including 4 indoor and 4 outdoor courts. There is the appropriate training facilities available for everyone, whether you are a novice or a professional.;Badminton;Tucholskystraße 18/20, 10117 Berlin;https://images.unsplash.com/photo-1626721105368-a69248e93b32?ixlib=rb-1.2.1&ixid=MnwxMjA3fDB8MHxwaG90by1wYWdlfHx8fGVufDB8fHx8&auto=format&fit=crop&w=1470&q=80;8;;
73;Landsat Badminton;Are you looking for a little vacation from everyday life? Then you've come to the right place at Landsat! Whether young or old, beginner or professional, the extensive facility offers something for everyone. Landsat badminton offers plenty of space for exercise in the countryside and a large selection of sports activities.;Badminton;Neustädtische Kirchstraße 6, 10117 Berlin;https://images.unsplash.com/photo-1521537634581-0dced2fee2ef?ixlib=rb-1.2.1&ixid=MnwxMjA3fDB8MHxwaG90by1wYWdlfHx8fGVufDB8fHx8&auto=format&fit=crop&w=1470&q=80;4;;
74;Aqua Badminton;here at the Aqua you have the opportunity to practice Badminton, either in a team or individually. Take advantage of the huge range of sports to work on your individual skills and at the same time ensure an improved body feeling. ;Badminton;Behrenstraße 47, 10117 Berlin;https://images.unsplash.com/photo-1564226803380-91139fdcb4d0?ixlib=rb-1.2.1&ixid=MnwxMjA3fDB8MHxwaG90by1wYWdlfHx8fGVufDB8fHx8&auto=format&fit=crop&w=1470&q=80;6;;
75;Aura Badminton;At Aura Berlin, you have the opportunity to play and train badminton together with others in huge and modern halls for competition or just for fun. Here you have the opportunity to improve your badminton skills and achieve your personal training goals. Join the badminton association and experience the joy of sport here!;Badminton;Mainzer Str. 14, 10247 Berlin;https://images.unsplash.com/photo-1617696618050-b0fef0c666af?ixlib=rb-1.2.1&ixid=MnwxMjA3fDB8MHxwaG90by1wYWdlfHx8fGVufDB8fHx8&auto=format&fit=crop&w=1470&q=80;3;;
76;Icesat Badminton;Would you like to share your love of badminton with others and are you looking for the perfect place to do so? Then you've come to the right place at Icesat, because here you have the opportunity to train badminton with like-minded people in a motivating atmosphere. Play here in a team and, in addition to normal training sessions, also attend training camps for high-intensity badminton training. Come to Icesat Club and experience the joy of badminton!;Badminton;Alte Schönhauser Str. 12, 10119 Berlin;https://images.unsplash.com/photo-1633313236093-beebdd1a5e80?ixlib=rb-1.2.1&ixid=MnwxMjA3fDB8MHxwaG90by1wYWdlfHx8fGVufDB8fHx8&auto=format&fit=crop&w=1379&q=80;3;;
77;Prefire Badminton;You may play and practice badminton with others at Prefire in spacious, cutting-edge halls for competition or just for enjoyment. You can develop your badminton abilities and meet your individual fitness objectives here. Become a member of the badminton association and enjoy sports!;Badminton;Straßmannstraße 21, 10249 Berlin;https://images.unsplash.com/photo-1623998021722-b934f73081df?ixlib=rb-1.2.1&ixid=MnwxMjA3fDB8MHxwaG90by1wYWdlfHx8fGVufDB8fHx8&auto=format&fit=crop&w=1470&q=80;5;;
78;Maia Badminton;You can practice badminton here at the Maia, either with a team or on your alone. Utilize the wide variety of activities to hone your specific skills while also ensuring an increased sense of body. At Maia we care about having a community so we can grow together. ;Badminton;Memhardstraße 3, 10178 Berlin;https://images.unsplash.com/photo-1613918431703-aa50889e3be9?ixlib=rb-1.2.1&ixid=MnwxMjA3fDB8MHxwaG90by1wYWdlfHx8fGVufDB8fHx8&auto=format&fit=crop&w=1470&q=80;7;;
79;Pace Badminton;Are you seeking for the ideal location to spread your enthusiasm for badminton to others? Then you've found the right location at Pace, where you can train badminton in a motivating environment with others who share your interests. Play here as a team and go to training camps for intense badminton training in addition to regular practice sessions. Visit Pace Club to enjoy the sport of badminton!;Badminton;Kienitzer Str. 110, 12049 Berlin;https://images.unsplash.com/photo-1626326880051-9320471299c0?ixlib=rb-1.2.1&ixid=MnwxMjA3fDB8MHxwaG90by1wYWdlfHx8fGVufDB8fHx8&auto=format&fit=crop&w=1470&q=80;5;;
80;Calipso Badminton;Ten clay courts and a three-span hall are available to Terra members and guests at the tennis facility. Even though it only takes 15 minutes to go to the Mitte, this part of Berlin's outskirts nonetheless offers absolute peace and quiet. Calypso has a playground for the little badminton stars, a beach, and a place to relax.;Badminton;Pannierstraße 9a, 12047 Berlin;https://images.unsplash.com/photo-1602585997649-12c38db4eb73?ixlib=rb-1.2.1&ixid=MnwxMjA3fDB8MHxwaG90by1wYWdlfHx8fGVufDB8fHx8&auto=format&fit=crop&w=1376&q=80;8;;
81;Utopia Kajaking;Utopia Berlin is a young company that has been on the market since 2017. Equipped with a broad portfolio, the new and larger location at the Spree Utopia was opened in May 2018. With the first floating SUP stand, Utopia Berlin is setting a new standard in the rental scene.;Kayaking;Unter den Linden 39, 10117 Berlin;https://images.unsplash.com/photo-1603483898658-9c966ad5faa9?ixlib=rb-1.2.1&ixid=MnwxMjA3fDB8MHxwaG90by1wYWdlfHx8fGVufDB8fHx8&auto=format&fit=crop&w=1374&q=80;15;;
82;Silver Wave Kajaking;With Silver Wave, enjoy unforgettable moments on the water surrounded by breathtaking nature. With our competent crew you can leave everyday life behind and slow down. From bachelor(ette) parties and team events to SUP, boat and kayak rentals or yoga on the lake. Big or small, everyone goes home with us in a good mood.;Kayaking;Graefestraße 26a, 10967 Berlin;https://images.unsplash.com/photo-1467358895199-cd5d1847a7e4?ixlib=rb-1.2.1&ixid=MnwxMjA3fDB8MHxwaG90by1wYWdlfHx8fGVufDB8fHx8&auto=format&fit=crop&w=1374&q=80;17;;
83;Sea Swag Kajaking;Here in the Sea Swag there are ideal conditions for boating: many small streams, no waves, no motorboats, and no wind. Our boats are ideal for these conditions. The proportions of the kayaks and their weight distribution result in good steering performance. The flat, broad bottoms of our boats glide calm and stable through the water.;Kayaking;Straßburger Str. 29, 10405 Berlin;https://images.unsplash.com/photo-1541248337-7577511c5bd7?ixlib=rb-1.2.1&ixid=MnwxMjA3fDB8MHxwaG90by1wYWdlfHx8fGVufDB8fHx8&auto=format&fit=crop&w=1470&q=80;20;;
84;Ocean Kajaking;Explore Berlin by canoe while doing sport! With Ocean Berlin, we are inviting you to actively explore the hidden gems of the city by canoe. Whether you’re a visitor or a true Berliner – we guarantee that you`ve never looked at Berlin from this perspective!;Kayaking;Rudi-Dutschke-Straße 25, 10969 Berlin;https://images.unsplash.com/photo-1622018306727-d3f51a53525e?ixlib=rb-1.2.1&ixid=MnwxMjA3fDB8MHxwaG90by1wYWdlfHx8fGVufDB8fHx8&auto=format&fit=crop&w=687&q=80;20;;
85;Crystal Kajaking;With Crystal Kajkaing Berlin, enjoy the stunning waterscape of the legendary Landwehrkanal and the Spree River! Discover an unexpected oasis in the middle of the city. Switch of your perspective. Move differntly thru Berlin . It will be a real daydream! With the best equipment – comfortable kayaks, life vests, spray decks – and professional guided in small groups we provide you a unique experience.;Kayaking;Grimmstraße 30, 10967 Berlin;https://images.unsplash.com/photo-1622018306778-5aaacd36ef0a?ixlib=rb-1.2.1&ixid=MnwxMjA3fDB8MHxwaG90by1wYWdlfHx8fGVufDB8fHx8&auto=format&fit=crop&w=687&q=80;10;;
86;Escape Kajaking;Escape Kayaking promotes strength, endurance, balance and coordination and can be practiced by young and old on the calm Berlin waters. In addition, there is the stay in nature and the nice community of the club. We organize regattas and organize a forest run every year for children and adults. In winter we offer strength and endurance training in the hall.;Kayaking;Reinhardtstraße 27d, 10117 Berlin;https://images.unsplash.com/photo-1529961700018-773e8f46d7ad?ixlib=rb-1.2.1&ixid=MnwxMjA3fDB8MHxwaG90by1wYWdlfHx8fGVufDB8fHx8&auto=format&fit=crop&w=1469&q=80;12;;
87;Scorpio Kajaking;With Scorpio Kayaking, You will be supervised by 5 trainers. You can train up to three times a week during summer, during winter we have other appointment that gets updated every week depends on the weather. We currently have 130 members. Join us and be part of the community.;Kayaking;Kastanienallee 4, 10435 Berlin;https://images.unsplash.com/photo-1523287281576-5b596107a6ae?ixlib=rb-1.2.1&ixid=MnwxMjA3fDB8MHxwaG90by1wYWdlfHx8fGVufDB8fHx8&auto=format&fit=crop&w=1470&q=80;18;;
88;Pacific Kajaking;Enjoy the breathtaking waterscape of the famed Landwehrkanal and the Spree River with Pacific Kajkaing Berlin! Find a hidden refuge in the heart of the metropolis. Change your viewpoint. Differently move across Berlin. A genuine daydream, that will be! We offer you a one-of-a-kind experience with the greatest tools—comfortable kayaks, life jackets, and spray decks—and qualified guides in small groups.;Kayaking;Hannoversche Str. 2, 10115 Berlin;https://images.unsplash.com/photo-1480480565647-1c4385c7c0bf?ixlib=rb-1.2.1&ixid=MnwxMjA3fDB8MHxwaG90by1wYWdlfHx8fGVufDB8fHx8&auto=format&fit=crop&w=1931&q=80;20;;
89;Starboard Kajaking;Escape kayaking may be done by both young and old on the calm Berlin waters and helps to build strength, endurance, balance, and coordination. The stay in the wilderness and the welcoming club community are additional benefits. Every year, we plan regattas for kids and adults, as well as a forest run. We provide strength and endurance training in the hall during the winter.;Kayaking;Erkstraße 10, 12043 Berlin;https://images.unsplash.com/photo-1569965335962-2317ff2a7658?ixlib=rb-1.2.1&ixid=MnwxMjA3fDB8MHxwaG90by1wYWdlfHx8fGVufDB8fHx8&auto=format&fit=crop&w=738&q=80;22;;
90;Coastal Kajaking;Explore Berlin by canoe while doing sport! With Costal Kayak, we are inviting you to actively explore the hidden gems of the city by canoe. Whether you’re a visitor or a true Berliner – we guarantee that you've never looked at Berlin from this perspective!;Kayaking;Monbijoupl. 12, 10178 Berlin;https://images.unsplash.com/photo-1505484128028-7b964df26344?ixlib=rb-1.2.1&ixid=MnwxMjA3fDB8MHxwaG90by1wYWdlfHx8fGVufDB8fHx8&auto=format&fit=crop&w=1470&q=80;16;;